CCSDS_OMM_VERS = 2.0
CREATION_DATE  = 
ORIGINATOR     = 

OBJECT_NAME    = UNKNOWN
OBJECT_ID      = 
CENTER_NAME    = EARTH
REF_FRAME      = TEME
TIME_SYSTEM    = UTC
MEAN_ELEMENT_THEORY = SGP/SGP4

EPOCH          = 2025-11-03T22:17:51.553824
MEAN_MOTION    = 12.32150010
ECCENTRICITY   = .0173793
INCLINATION    = 102.0170
RA_OF_ASC_NODE = 6.5354
ARG_OF_PERICENTER = 4.4059
MEAN_ANOMALY   = 170.6940

EPHEMERIS_TYPE = 0
CLASSIFICATION_TYPE = U
NORAD_CAT_ID   = 87561
ELEMENT_SET_NO = 999
REV_AT_EPOCH   = 53765
BSTAR          = .16606E-3
MEAN_MOTION_DOT = -.23E-6
MEAN_MOTION_DDOT = 0

CCSDS_OMM_VERS = 2.0
CREATION_DATE  = 
ORIGINATOR     = 

OBJECT_NAME    = UNKNOWN
OBJECT_ID      = 
CENTER_NAME    = EARTH
REF_FRAME      = TEME
TIME_SYSTEM    = UTC
MEAN_ELEMENT_THEORY = SGP/SGP4

EPOCH          = 2025-10-26T09:51:45.113184
MEAN_MOTION    = 14.05821183
ECCENTRICITY   = .0172145
INCLINATION    = 99.9429
RA_OF_ASC_NODE = 286.4074
ARG_OF_PERICENTER = 299.3560
MEAN_ANOMALY   = 59.0506

EPHEMERIS_TYPE = 0
CLASSIFICATION_TYPE = U
NORAD_CAT_ID   = 87565
ELEMENT_SET_NO = 999
REV_AT_EPOCH   = 60978
BSTAR          = .11183E-2
MEAN_MOTION_DOT = .2035E-4
MEAN_MOTION_DDOT = 0

CCSDS_OMM_VERS = 2.0
CREATION_DATE  = 
ORIGINATOR     = 

OBJECT_NAME    = UNKNOWN
OBJECT_ID      = 
CENTER_NAME    = EARTH
REF_FRAME      = TEME
TIME_SYSTEM    = UTC
MEAN_ELEMENT_THEORY = SGP/SGP4

EPOCH          = 2025-11-03T10:21:12.617856
MEAN_MOTION    = 12.68539236
ECCENTRICITY   = .0055556
INCLINATION    = 101.9893
RA_OF_ASC_NODE = 123.2731
ARG_OF_PERICENTER = 330.6670
MEAN_ANOMALY   = 58.6950

EPHEMERIS_TYPE = 0
CLASSIFICATION_TYPE = U
NORAD_CAT_ID   = 87569
ELEMENT_SET_NO = 999
REV_AT_EPOCH   = 55348
BSTAR          = .10459E-3
MEAN_MOTION_DOT = -.28E-6
MEAN_MOTION_DDOT = 0

CCSDS_OMM_VERS = 2.0
CREATION_DATE  = 
ORIGINATOR     = 

OBJECT_NAME    = UNKNOWN
OBJECT_ID      = 
CENTER_NAME    = EARTH
REF_FRAME      = TEME
TIME_SYSTEM    = UTC
MEAN_ELEMENT_THEORY = SGP/SGP4

EPOCH          = 2025-11-02T21:57:36.121824
MEAN_MOTION    = 14.40025145
ECCENTRICITY   = .0021228
INCLINATION    = 74.0243
RA_OF_ASC_NODE = 176.5367
ARG_OF_PERICENTER = 224.6310
MEAN_ANOMALY   = 135.3136

EPHEMERIS_TYPE = 0
CLASSIFICATION_TYPE = U
NORAD_CAT_ID   = 87587
ELEMENT_SET_NO = 999
REV_AT_EPOCH   = 62807
BSTAR          = .90254E-4
MEAN_MOTION_DOT = .258E-5
MEAN_MOTION_DDOT = 0

CCSDS_OMM_VERS = 2.0
CREATION_DATE  = 
ORIGINATOR     = 

OBJECT_NAME    = UNKNOWN
OBJECT_ID      = 
CENTER_NAME    = EARTH
REF_FRAME      = TEME
TIME_SYSTEM    = UTC
MEAN_ELEMENT_THEORY = SGP/SGP4

EPOCH          = 2025-11-03T01:22:49.122336
MEAN_MOTION    = 14.10246965
ECCENTRICITY   = .0027121
INCLINATION    = 98.7933
RA_OF_ASC_NODE = 345.0708
ARG_OF_PERICENTER = 38.2754
MEAN_ANOMALY   = 352.5660

EPHEMERIS_TYPE = 0
CLASSIFICATION_TYPE = U
NORAD_CAT_ID   = 87590
ELEMENT_SET_NO = 999
REV_AT_EPOCH   = 14865
BSTAR          = .43607E-3
MEAN_MOTION_DOT = .732E-5
MEAN_MOTION_DDOT = 0

CCSDS_OMM_VERS = 2.0
CREATION_DATE  = 
ORIGINATOR     = 

OBJECT_NAME    = UNKNOWN
OBJECT_ID      = 
CENTER_NAME    = EARTH
REF_FRAME      = TEME
TIME_SYSTEM    = UTC
MEAN_ELEMENT_THEORY = SGP/SGP4

EPOCH          = 2025-10-25T07:15:25.084224
MEAN_MOTION    = 12.46829466
ECCENTRICITY   = .0634293
INCLINATION    = 66.0318
RA_OF_ASC_NODE = 243.8186
ARG_OF_PERICENTER = 160.2602
MEAN_ANOMALY   = 352.5311

EPHEMERIS_TYPE = 0
CLASSIFICATION_TYPE = U
NORAD_CAT_ID   = 87616
ELEMENT_SET_NO = 999
REV_AT_EPOCH   = 53019
BSTAR          = .11794E-2
MEAN_MOTION_DOT = .299E-5
MEAN_MOTION_DDOT = 0

CCSDS_OMM_VERS = 2.0
CREATION_DATE  = 
ORIGINATOR     = 

OBJECT_NAME    = UNKNOWN
OBJECT_ID      = 
CENTER_NAME    = EARTH
REF_FRAME      = TEME
TIME_SYSTEM    = UTC
MEAN_ELEMENT_THEORY = SGP/SGP4

EPOCH          = 2025-11-03T18:32:56.500224
MEAN_MOTION    = 14.69155706
ECCENTRICITY   = .0100583
INCLINATION    = 98.6749
RA_OF_ASC_NODE = 242.7642
ARG_OF_PERICENTER = 11.0909
MEAN_ANOMALY   = 349.2479

EPHEMERIS_TYPE = 0
CLASSIFICATION_TYPE = U
NORAD_CAT_ID   = 87624
ELEMENT_SET_NO = 999
REV_AT_EPOCH   = 57455
BSTAR          = .14773E-2
MEAN_MOTION_DOT = .934E-4
MEAN_MOTION_DDOT = 0

CCSDS_OMM_VERS = 2.0
CREATION_DATE  = 
ORIGINATOR     = 

OBJECT_NAME    = UNKNOWN
OBJECT_ID      = 
CENTER_NAME    = EARTH
REF_FRAME      = TEME
TIME_SYSTEM    = UTC
MEAN_ELEMENT_THEORY = SGP/SGP4

EPOCH          = 2025-10-31T05:06:06.399648
MEAN_MOTION    = 14.60170284
ECCENTRICITY   = .0032199
INCLINATION    = 100.2713
RA_OF_ASC_NODE = 109.3332
ARG_OF_PERICENTER = 45.0016
MEAN_ANOMALY   = 315.3778

EPHEMERIS_TYPE = 0
CLASSIFICATION_TYPE = U
NORAD_CAT_ID   = 87650
ELEMENT_SET_NO = 999
REV_AT_EPOCH   = 7355
BSTAR          = .33075E-2
MEAN_MOTION_DOT = .16018E-3
MEAN_MOTION_DDOT = 0

CCSDS_OMM_VERS = 2.0
CREATION_DATE  = 
ORIGINATOR     = 

OBJECT_NAME    = UNKNOWN
OBJECT_ID      = 
CENTER_NAME    = EARTH
REF_FRAME      = TEME
TIME_SYSTEM    = UTC
MEAN_ELEMENT_THEORY = SGP/SGP4

EPOCH          = 2025-10-20T21:04:49.436544
MEAN_MOTION    = 14.27451125
ECCENTRICITY   = .0059359
INCLINATION    = 70.8562
RA_OF_ASC_NODE = 120.8372
ARG_OF_PERICENTER = 351.7560
MEAN_ANOMALY   = 8.2586

EPHEMERIS_TYPE = 0
CLASSIFICATION_TYPE = U
NORAD_CAT_ID   = 87672
ELEMENT_SET_NO = 999
REV_AT_EPOCH   = 61691
BSTAR          = .79499E-3
MEAN_MOTION_DOT = .1939E-4
MEAN_MOTION_DDOT = 0

CCSDS_OMM_VERS = 2.0
CREATION_DATE  = 
ORIGINATOR     = 

OBJECT_NAME    = UNKNOWN
OBJECT_ID      = 
CENTER_NAME    = EARTH
REF_FRAME      = TEME
TIME_SYSTEM    = UTC
MEAN_ELEMENT_THEORY = SGP/SGP4

EPOCH          = 2025-11-03T09:29:40.411968
MEAN_MOTION    = 13.70977687
ECCENTRICITY   = .0159286
INCLINATION    = 66.7363
RA_OF_ASC_NODE = 191.8638
ARG_OF_PERICENTER = 188.7868
MEAN_ANOMALY   = 171.0406

EPHEMERIS_TYPE = 0
CLASSIFICATION_TYPE = U
NORAD_CAT_ID   = 87681
ELEMENT_SET_NO = 999
REV_AT_EPOCH   = 59644
BSTAR          = .1071E-2
MEAN_MOTION_DOT = .974E-5
MEAN_MOTION_DDOT = 0

CCSDS_OMM_VERS = 2.0
CREATION_DATE  = 
ORIGINATOR     = 

OBJECT_NAME    = UNKNOWN
OBJECT_ID      = 
CENTER_NAME    = EARTH
REF_FRAME      = TEME
TIME_SYSTEM    = UTC
MEAN_ELEMENT_THEORY = SGP/SGP4

EPOCH          = 2025-11-02T17:01:07.161024
MEAN_MOTION    = 13.99929701
ECCENTRICITY   = .0578246
INCLINATION    = 65.7922
RA_OF_ASC_NODE = 98.0272
ARG_OF_PERICENTER = 68.2218
MEAN_ANOMALY   = 297.9349

EPHEMERIS_TYPE = 0
CLASSIFICATION_TYPE = U
NORAD_CAT_ID   = 87690
ELEMENT_SET_NO = 999
REV_AT_EPOCH   = 60177
BSTAR          = .69552E-3
MEAN_MOTION_DOT = .4449E-4
MEAN_MOTION_DDOT = 0

CCSDS_OMM_VERS = 2.0
CREATION_DATE  = 
ORIGINATOR     = 

OBJECT_NAME    = UNKNOWN
OBJECT_ID      = 
CENTER_NAME    = EARTH
REF_FRAME      = TEME
TIME_SYSTEM    = UTC
MEAN_ELEMENT_THEORY = SGP/SGP4

EPOCH          = 2025-11-04T11:52:03.959328
MEAN_MOTION    = 14.63922824
ECCENTRICITY   = .0106507
INCLINATION    = 98.6745
RA_OF_ASC_NODE = 130.0437
ARG_OF_PERICENTER = 26.6317
MEAN_ANOMALY   = 29.6479

EPHEMERIS_TYPE = 0
CLASSIFICATION_TYPE = U
NORAD_CAT_ID   = 87706
ELEMENT_SET_NO = 999
REV_AT_EPOCH   = 57292
BSTAR          = .59464E-3
MEAN_MOTION_DOT = .3321E-4
MEAN_MOTION_DDOT = 0

