UNKNOWN                 
1 87561U          25307.92906891 -.00000023  00000+0  16606-3 0  9995
2 87561 102.0170   6.5354 0173793   4.4059 170.6940 12.32150010537653
UNKNOWN                 
1 87565U          25299.41093881  .00002035  00000+0  11183-2 0  9997
2 87565  99.9429 286.4074 0172145 299.3560  59.0506 14.05821183609788
UNKNOWN                 
1 87569U          25307.43139604 -.00000028  00000+0  10459-3 0  9994
2 87569 101.9893 123.2731 0055556 330.6670  58.6950 12.68539236553481
UNKNOWN                 
1 87587U          25306.91500141  .00000258  00000+0  90254-4 0  9990
2 87587  74.0243 176.5367 0021228 224.6310 135.3136 14.40025145628076
UNKNOWN                 
1 87590U          25307.05751299  .00000732  00000+0  43607-3 0  9998
2 87590  98.7933 345.0708 0027121  38.2754 352.5660 14.10246965148658
UNKNOWN                 
1 87616U          25298.30237366  .00000299  00000+0  11794-2 0  9997
2 87616  66.0318 243.8186 0634293 160.2602 352.5311 12.46829466530196
UNKNOWN                 
1 87624U          25307.77287616  .00009340  00000+0  14773-2 0  9997
2 87624  98.6749 242.7642 0100583  11.0909 349.2479 14.69155706574554
UNKNOWN                 
1 87650U          25304.21257407  .00016018  00000+0  33075-2 0  9993
2 87650 100.2713 109.3332 0032199  45.0016 315.3778 14.60170284 73550
UNKNOWN                 
1 87672U          25293.87834996  .00001939  00000+0  79499-3 0  9997
2 87672  70.8562 120.8372 0059359 351.7560   8.2586 14.27451125616915
UNKNOWN                 
1 87681U          25307.39560662  .00000974  00000+0  10710-2 0  9994
2 87681  66.7363 191.8638 0159286 188.7868 171.0406 13.70977687596448
UNKNOWN                 
1 87690U          25306.70911066  .00004449  00000+0  69552-3 0  9996
2 87690  65.7922  98.0272 0578246  68.2218 297.9349 13.99929701601774
UNKNOWN                 
1 87706U          25308.49449027  .00003321  00000+0  59464-3 0  9994
2 87706  98.6745 130.0437 0106507  26.6317  29.6479 14.63922824572924
